{
  "norad_id": 62657,
  "name": "TRANSPORTER-12 OBJECT BA",
  "history": [
    {
      "epoch": "2026-03-28T16:47:41.584704Z",
      "apogee_km": 484.3559522142714,
      "perigee_km": 481.5741869911717,
      "latitude_deg": -3.2541500921650905e-05,
      "longitude_deg": 91.94415734989776,
      "height_km": 487.35036120863924,
      "semi_major_axis_km": 6861.102069602721,
      "eccentricity": 0.00020272,
      "inclination_deg": 97.397,
      "raan_deg": 169.9839,
      "arg_perigee_deg": 157.5308,
      "mean_anomaly_deg": 202.602,
      "mean_motion_rev_day": 15.27608062
    },
    {
      "epoch": "2026-03-29T03:47:58.181856Z",
      "apogee_km": 484.345464635564,
      "perigee_km": 481.4926375295245,
      "latitude_deg": 7.037655161795642e-05,
      "longitude_deg": -73.12205406100107,
      "height_km": 487.32247342719216,
      "semi_major_axis_km": 6861.056051082544,
      "eccentricity": 0.0002079,
      "inclination_deg": 97.3971,
      "raan_deg": 170.4388,
      "arg_perigee_deg": 156.0429,
      "mean_anomaly_deg": 204.0908,
      "mean_motion_rev_day": 15.27623431
    },
    {
      "epoch": "2026-03-30T04:57:09.159264Z",
      "apogee_km": 484.3243169243142,
      "perigee_km": 481.3477523829606,
      "latitude_deg": 1.0095012739425594e-05,
      "longitude_deg": -90.41098383987581,
      "height_km": 487.27537567587706,
      "semi_major_axis_km": 6860.973034653637,
      "eccentricity": 0.00021692,
      "inclination_deg": 97.3972,
      "raan_deg": 171.4786,
      "arg_perigee_deg": 154.1672,
      "mean_anomaly_deg": 205.9676,
      "mean_motion_rev_day": 15.27651157
    },
    {
      "epoch": "2026-03-30T17:31:44.022432Z",
      "apogee_km": 484.292421851007,
      "perigee_km": 481.2910399683833,
      "latitude_deg": 6.285873430302884e-05,
      "longitude_deg": 80.94705437560275,
      "height_km": 487.2346864761026,
      "semi_major_axis_km": 6860.928730909694,
      "eccentricity": 0.00021873,
      "inclination_deg": 97.3971,
      "raan_deg": 171.9984,
      "arg_perigee_deg": 153.5158,
      "mean_anomaly_deg": 206.6194,
      "mean_motion_rev_day": 15.27665954
    },
    {
      "epoch": "2026-03-31T04:31:59.199168Z",
      "apogee_km": 484.28569422313285,
      "perigee_km": 481.23629949944734,
      "latitude_deg": 8.04615590423779e-05,
      "longitude_deg": -84.11321080303986,
      "height_km": 487.21309362604774,
      "semi_major_axis_km": 6860.897996861289,
      "eccentricity": 0.00022223,
      "inclination_deg": 97.3971,
      "raan_deg": 172.4533,
      "arg_perigee_deg": 152.4993,
      "mean_anomaly_deg": 207.6365,
      "mean_motion_rev_day": 15.27676219
    },
    {
      "epoch": "2026-04-01T04:06:47.926656Z",
      "apogee_km": 484.25738804253706,
      "perigee_km": 481.1329650693342,
      "latitude_deg": -1.6134082316403343e-05,
      "longitude_deg": -77.81013267037534,
      "height_km": 487.154244386039,
      "semi_major_axis_km": 6860.832176555936,
      "eccentricity": 0.0002277,
      "inclination_deg": 97.3968,
      "raan_deg": 173.4278,
      "arg_perigee_deg": 150.4857,
      "mean_anomaly_deg": 209.6511,
      "mean_motion_rev_day": 15.27698203
    },
    {
      "epoch": "2026-04-02T16:16:08.001696Z",
      "apogee_km": 484.21130281373917,
      "perigee_km": 480.93462773432475,
      "latitude_deg": -3.68043389672009e-05,
      "longitude_deg": 99.86606873229731,
      "height_km": 487.0317099391848,
      "semi_major_axis_km": 6860.709965274032,
      "eccentricity": 0.0002388,
      "inclination_deg": 97.3964,
      "raan_deg": 174.9225,
      "arg_perigee_deg": 146.0751,
      "mean_anomaly_deg": 214.0641,
      "mean_motion_rev_day": 15.27739023
    },
    {
      "epoch": "2026-04-02T22:33:24.075072Z",
      "apogee_km": 484.18209362695507,
      "perigee_km": 480.8806028044264,
      "latitude_deg": 7.453195114700253e-05,
      "longitude_deg": 5.5507514476110416,
      "height_km": 486.9974737842027,
      "semi_major_axis_km": 6860.6683482156905,
      "eccentricity": 0.00024061,
      "inclination_deg": 97.3963,
      "raan_deg": 175.1824,
      "arg_perigee_deg": 145.8955,
      "mean_anomaly_deg": 214.244,
      "mean_motion_rev_day": 15.27752924
    },
    {
      "epoch": "2026-04-03T18:59:30.522336Z",
      "apogee_km": 484.11704481874494,
      "perigee_km": 480.7786842236701,
      "latitude_deg": -2.643003577130144e-05,
      "longitude_deg": 59.02936013234782,
      "height_km": 486.90731158166,
      "semi_major_axis_km": 6860.584864521207,
      "eccentricity": 0.0002433,
      "inclination_deg": 97.3962,
      "raan_deg": 176.0271,
      "arg_perigee_deg": 144.5774,
      "mean_anomaly_deg": 215.5627,
      "mean_motion_rev_day": 15.2778081
    },
    {
      "epoch": "2026-04-04T04:25:23.743776Z",
      "apogee_km": 484.0857540362849,
      "perigee_km": 480.7184642307402,
      "latitude_deg": -3.375399417160973e-06,
      "longitude_deg": -82.43983493926,
      "height_km": 486.85876952535745,
      "semi_major_axis_km": 6860.539109133512,
      "eccentricity": 0.00024541,
      "inclination_deg": 97.396,
      "raan_deg": 176.417,
      "arg_perigee_deg": 143.7332,
      "mean_anomaly_deg": 216.4074,
      "mean_motion_rev_day": 15.27796094
    },
    {
      "epoch": "2026-04-05T11:51:39.333600Z",
      "apogee_km": 484.03405775313695,
      "perigee_km": 480.5635005011918,
      "latitude_deg": -1.8079642964028025e-06,
      "longitude_deg": 166.0039066212455,
      "height_km": 486.74677149678405,
      "semi_major_axis_km": 6860.435779127164,
      "eccentricity": 0.00025294,
      "inclination_deg": 97.3958,
      "raan_deg": 177.7168,
      "arg_perigee_deg": 141.0224,
      "mean_anomaly_deg": 219.1198,
      "mean_motion_rev_day": 15.27830611
    },
    {
      "epoch": "2026-04-05T18:08:54.168864Z",
      "apogee_km": 484.02776547386657,
      "perigee_km": 480.53169710759994,
      "latitude_deg": -7.389482839328346e-05,
      "longitude_deg": 71.69388528698612,
      "height_km": 486.7309112073239,
      "semi_major_axis_km": 6860.416731290733,
      "eccentricity": 0.0002548,
      "inclination_deg": 97.3957,
      "raan_deg": 177.9768,
      "arg_perigee_deg": 140.674,
      "mean_anomaly_deg": 219.4684,
      "mean_motion_rev_day": 15.27836974
    },
    {
      "epoch": "2026-04-06T05:09:04.930560Z",
      "apogee_km": 484.0248244593977,
      "perigee_km": 480.47868951091095,
      "latitude_deg": 1.3518284245780254e-05,
      "longitude_deg": -93.34794408220657,
      "height_km": 486.7049459466489,
      "semi_major_axis_km": 6860.388756985154,
      "eccentricity": 0.00025845,
      "inclination_deg": 97.3956,
      "raan_deg": 178.4317,
      "arg_perigee_deg": 139.8016,
      "mean_anomaly_deg": 220.3415,
      "mean_motion_rev_day": 15.27846319
    },
    {
      "epoch": "2026-04-07T04:43:44.281920Z",
      "apogee_km": 483.9981568107778,
      "perigee_km": 480.37837478753136,
      "latitude_deg": 2.1557528761145424e-05,
      "longitude_deg": -87.00540917275457,
      "height_km": 486.6332659657044,
      "semi_major_axis_km": 6860.325265799154,
      "eccentricity": 0.00026382,
      "inclination_deg": 97.3953,
      "raan_deg": 179.4065,
      "arg_perigee_deg": 138.0579,
      "mean_anomaly_deg": 222.0863,
      "mean_motion_rev_day": 15.27867529
    },
    {
      "epoch": "2026-04-07T17:18:12.908736Z",
      "apogee_km": 483.9856189442671,
      "perigee_km": 480.3496574860128,
      "latitude_deg": 4.958246569911681e-05,
      "longitude_deg": 84.37888603948342,
      "height_km": 486.60327134783046,
      "semi_major_axis_km": 6860.30463821514,
      "eccentricity": 0.000265,
      "inclination_deg": 97.3954,
      "raan_deg": 179.9265,
      "arg_perigee_deg": 137.3401,
      "mean_anomaly_deg": 222.8045,
      "mean_motion_rev_day": 15.2787442
    },
    {
      "epoch": "2026-04-08T04:18:22.672512Z",
      "apogee_km": 483.9791056080285,
      "perigee_km": 480.295824247808,
      "latitude_deg": -2.9301504682926604e-05,
      "longitude_deg": -80.65865288251001,
      "height_km": 486.5673425070792,
      "semi_major_axis_km": 6860.2744649279175,
      "eccentricity": 0.00026845,
      "inclination_deg": 97.3954,
      "raan_deg": 180.3815,
      "arg_perigee_deg": 136.291,
      "mean_anomaly_deg": 223.8542,
      "mean_motion_rev_day": 15.278845
    },
    {
      "epoch": "2026-04-09T03:53:00.035808Z",
      "apogee_km": 483.97333313942636,
      "perigee_km": 480.20117023239345,
      "latitude_deg": 4.02617915031677e-05,
      "longitude_deg": -74.30772011292032,
      "height_km": 486.50059773543546,
      "semi_major_axis_km": 6860.22425168591,
      "eccentricity": 0.00027493,
      "inclination_deg": 97.3953,
      "raan_deg": 181.3564,
      "arg_perigee_deg": 134.1998,
      "mean_anomaly_deg": 225.9468,
      "mean_motion_rev_day": 15.27901275
    },
    {
      "epoch": "2026-04-10T05:01:54.831360Z",
      "apogee_km": 483.9525608190743,
      "perigee_km": 480.11045484457736,
      "latitude_deg": -4.560331985047319e-05,
      "longitude_deg": -91.52884119440118,
      "height_km": 486.4268127151276,
      "semi_major_axis_km": 6860.168507831825,
      "eccentricity": 0.00028003,
      "inclination_deg": 97.3953,
      "raan_deg": 182.3964,
      "arg_perigee_deg": 132.4657,
      "mean_anomaly_deg": 227.6819,
      "mean_motion_rev_day": 15.27919898
    },
    {
      "epoch": "2026-04-11T18:45:15.133824Z",
      "apogee_km": 483.95247983725767,
      "perigee_km": 479.9599055990957,
      "latitude_deg": -5.0495197757658756e-05,
      "longitude_deg": 62.64676266643322,
      "height_km": 486.3424011465147,
      "semi_major_axis_km": 6860.093192718176,
      "eccentricity": 0.000291,
      "inclination_deg": 97.3951,
      "raan_deg": 183.9558,
      "arg_perigee_deg": 130.1858,
      "mean_anomaly_deg": 229.9636,
      "mean_motion_rev_day": 15.2794506
    },
    {
      "epoch": "2026-04-12T23:02:44.162304Z",
      "apogee_km": 483.9524139874511,
      "perigee_km": 479.89084767448185,
      "latitude_deg": 2.5534480791964655e-05,
      "longitude_deg": -1.7161863577466305,
      "height_km": 486.2645358849415,
      "semi_major_axis_km": 6860.058630830967,
      "eccentricity": 0.00029603,
      "inclination_deg": 97.3952,
      "raan_deg": 185.1257,
      "arg_perigee_deg": 127.8133,
      "mean_anomaly_deg": 232.3375,
      "mean_motion_rev_day": 15.27956607
    },
    {
      "epoch": "2026-04-14T11:11:43.313856Z",
      "apogee_km": 483.946041143452,
      "perigee_km": 479.8098637280309,
      "latitude_deg": 3.8433802430506735e-05,
      "longitude_deg": 176.047630382802,
      "height_km": 486.1541017315566,
      "semi_major_axis_km": 6860.014952435741,
      "eccentricity": 0.00030147,
      "inclination_deg": 97.3957,
      "raan_deg": 186.6206,
      "arg_perigee_deg": 124.7418,
      "mean_anomaly_deg": 235.4106,
      "mean_motion_rev_day": 15.279712
    },
    {
      "epoch": "2026-04-15T18:37:46.901856Z",
      "apogee_km": 483.9524085080884,
      "perigee_km": 479.7294061083494,
      "latitude_deg": 2.5231044347370883e-06,
      "longitude_deg": 64.5415253164537,
      "height_km": 486.0655661614071,
      "semi_major_axis_km": 6859.977907308218,
      "eccentricity": 0.0003078,
      "inclination_deg": 97.3957,
      "raan_deg": 187.9204,
      "arg_perigee_deg": 122.268,
      "mean_anomaly_deg": 237.8858,
      "mean_motion_rev_day": 15.27983577
    }
  ]
}